{"type": "FeatureCollection", "features": [ {"type": "Feature", "properties": {"norad_id": 66652, "name": "2025-274C", "group": "last-30-days", "lat": 15.972332270629714, "lon": -85.91398324199078, "alt_km": 597.0507398918253, "timestamp": "2025-12-15T04:01:19.180597+00:00", "meta": {"OBJECT_NAME": "2025-274C", "OBJECT_ID": "2025-274C", "EPOCH": "2025-12-14T07:01:27.267744", "MEAN_MOTION": 14.91914027, "ECCENTRICITY": 0.00102284, "INCLINATION": 97.739, "RA_OF_ASC_NODE": 275.4577, "ARG_OF_PERICENTER": 251.3982, "MEAN_ANOMALY": 108.6127, "EPHEMERIS_TYPE": 0, "CLASSIFICATION_TYPE": "U", "NORAD_CAT_ID": 66652, "ELEMENT_SET_NO": 999, "REV_AT_EPOCH": 263, "BSTAR": 0.00040254614, "MEAN_MOTION_DOT": 4.02e-05, "MEAN_MOTION_DDOT": 0}, "tle": {"line1": "1 66652U 25274C   25348.29267671  .00004020  00000+0  40255-3 0  9991", "line2": "2 66652  97.7390 275.4577 0010228 251.3982 108.6127 14.91914027  2636"}}, "geometry": {"type": "Point", "coordinates": [-85.91398324199078, 15.972332270629714]}}, {"type": "Feature", "properties": {"norad_id": 66653, "name": "2025-274D", "group": "last-30-days", "lat": 16.411014020356195, "lon": -85.9786968730371, "alt_km": 597.817567411973, "timestamp": "2025-12-15T04:01:19.180607+00:00", "meta": {"OBJECT_NAME": "2025-274D", "OBJECT_ID": "2025-274D", "EPOCH": "2025-12-14T07:01:20.305632", "MEAN_MOTION": 14.91919316, "ECCENTRICITY": 0.00111405, "INCLINATION": 97.7388, "RA_OF_ASC_NODE": 275.4576, "ARG_OF_PERICENTER": 247.4193, "MEAN_ANOMALY": 112.5847, "EPHEMERIS_TYPE": 0, "CLASSIFICATION_TYPE": "U", "NORAD_CAT_ID": 66653, "ELEMENT_SET_NO": 999, "REV_AT_EPOCH": 263, "BSTAR": 0.00034902077, "MEAN_MOTION_DOT": 3.479e-05, "MEAN_MOTION_DDOT": 0}, "tle": {"line1": "1 66653U 25274D   25348.29259613  .00003479  00000+0  34902-3 0  9998", "line2": "2 66653  97.7388 275.4576 0011140 247.4193 112.5847 14.91919316  2636"}}, "geometry": {"type": "Point", "coordinates": [-85.9786968730371, 16.411014020356195]}}, {"type": "Feature", "properties": {"norad_id": 66654, "name": "JACK E", "group": "last-30-days", "lat": 27.520998365788174, "lon": -87.74115998808486, "alt_km": 596.6535345926486, "timestamp": "2025-12-15T04:01:19.180616+00:00", "meta": {"OBJECT_NAME": "JACK E", "OBJECT_ID": "2025-274E", "EPOCH": "2025-12-14T06:58:28.443072", "MEAN_MOTION": 14.92096728, "ECCENTRICITY": 0.00116539, "INCLINATION": 97.7391, "RA_OF_ASC_NODE": 275.4607, "ARG_OF_PERICENTER": 249.1934, "MEAN_ANOMALY": 110.8037, "EPHEMERIS_TYPE": 0, "CLASSIFICATION_TYPE": "U", "NORAD_CAT_ID": 66654, "ELEMENT_SET_NO": 999, "REV_AT_EPOCH": 263, "BSTAR": 0.00039151162, "MEAN_MOTION_DOT": 3.927e-05, "MEAN_MOTION_DDOT": 0}, "tle": {"line1": "1 66654U 25274E   25348.29060698  .00003927  00000+0  39151-3 0  9991", "line2": "2 66654  97.7391 275.4607 0011653 249.1934 110.8037 14.92096728  2633"}}, "geometry": {"type": "Point", "coordinates": [-87.74115998808486, 27.520998365788174]}}, {"type": "Feature", "properties": {"norad_id": 66655, "name": "2025-274F", "group": "last-30-days", "lat": 22.547357732803146, "lon": -86.91467201619092, "alt_km": 590.6933709795258, "timestamp": "2025-12-15T04:01:19.180628+00:00", "meta": {"OBJECT_NAME": "2025-274F", "OBJECT_ID": "2025-274F", "EPOCH": "2025-12-14T06:58:59.589408", "MEAN_MOTION": 14.91098159, "ECCENTRICITY": 0.00051945, "INCLINATION": 97.7326, "RA_OF_ASC_NODE": 275.4604, "ARG_OF_PERICENTER": 12.4612, "MEAN_ANOMALY": 347.6734, "EPHEMERIS_TYPE": 0, "CLASSIFICATION_TYPE": "U", "NORAD_CAT_ID": 66655, "ELEMENT_SET_NO": 999, "REV_AT_EPOCH": 263, "BSTAR": 1.941917e-05, "MEAN_MOTION_DOT": 1.37e-06, "MEAN_MOTION_DDOT": 0}, "tle": {"line1": "1 66655U 25274F   25348.29096747  .00000137  00000+0  19419-4 0  9992", "line2": "2 66655  97.7326 275.4604 0005194  12.4612 347.6734 14.91098159  2639"}}, "geometry": {"type": "Point", "coordinates": [-86.91467201619092, 22.547357732803146]}}, {"type": "Feature", "properties": {"norad_id": 66656, "name": "2025-274G", "group": "last-30-days", "lat": 39.64879241709809, "lon": -90.14389726617708, "alt_km": 595.3026702532461, "timestamp": "2025-12-15T04:01:19.180639+00:00", "meta": {"OBJECT_NAME": "2025-274G", "OBJECT_ID": "2025-274G", "EPOCH": "2025-12-14T06:55:20.244864", "MEAN_MOTION": 14.9228863, "ECCENTRICITY": 0.00122568, "INCLINATION": 97.7389, "RA_OF_ASC_NODE": 275.4631, "ARG_OF_PERICENTER": 251.111, "MEAN_ANOMALY": 108.8781, "EPHEMERIS_TYPE": 0, "CLASSIFICATION_TYPE": "U", "NORAD_CAT_ID": 66656, "ELEMENT_SET_NO": 999, "REV_AT_EPOCH": 263, "BSTAR": 0.00041521652, "MEAN_MOTION_DOT": 4.189e-05, "MEAN_MOTION_DDOT": 0}, "tle": {"line1": "1 66656U 25274G   25348.28842876  .00004189  00000+0  41522-3 0  9994", "line2": "2 66656  97.7389 275.4631 0012256 251.1110 108.8781 14.92288630  2636"}}, "geometry": {"type": "Point", "coordinates": [-90.14389726617708, 39.64879241709809]}}, {"type": "Feature", "properties": {"norad_id": 66657, "name": "SPIRONE", "group": "last-30-days", "lat": 51.34533438991953, "lon": -93.45679384909722, "alt_km": 591.5084348743176, "timestamp": "2025-12-15T04:01:19.180651+00:00", "meta": {"OBJECT_NAME": "SPIRONE", "OBJECT_ID": "2025-274H", "EPOCH": "2025-12-14T06:52:18.051456", "MEAN_MOTION": 14.92467608, "ECCENTRICITY": 0.0010541, "INCLINATION": 97.7387, "RA_OF_ASC_NODE": 275.4658, "ARG_OF_PERICENTER": 270.0745, "MEAN_ANOMALY": 89.9266, "EPHEMERIS_TYPE": 0, "CLASSIFICATION_TYPE": "U", "NORAD_CAT_ID": 66657, "ELEMENT_SET_NO": 999, "REV_AT_EPOCH": 263, "BSTAR": 0.00041794685, "MEAN_MOTION_DOT": 4.235e-05, "MEAN_MOTION_DDOT": 0}, "tle": {"line1": "1 66657U 25274H   25348.28632004  .00004235  00000+0  41795-3 0  9999", "line2": "2 66657  97.7387 275.4658 0010541 270.0745  89.9266 14.92467608  2634"}}, "geometry": {"type": "Point", "coordinates": [-93.45679384909722, 51.34533438991953]}}, {"type": "Feature", "properties": {"norad_id": 66658, "name": "2025-274J", "group": "last-30-days", "lat": 62.51808306953584, "lon": -98.81853526079105, "alt_km": 590.5779368265121, "timestamp": "2025-12-15T04:01:19.180661+00:00", "meta": {"OBJECT_NAME": "2025-274J", "OBJECT_ID": "2025-274J", "EPOCH": "2025-12-14T06:49:21.043776", "MEAN_MOTION": 14.92637558, "ECCENTRICITY": 0.00111658, "INCLINATION": 97.7387, "RA_OF_ASC_NODE": 275.468, "ARG_OF_PERICENTER": 273.0269, "MEAN_ANOMALY": 86.9673, "EPHEMERIS_TYPE": 0, "CLASSIFICATION_TYPE": "U", "NORAD_CAT_ID": 66658, "ELEMENT_SET_NO": 999, "REV_AT_EPOCH": 263, "BSTAR": 0.00040275909, "MEAN_MOTION_DOT": 4.097e-05, "MEAN_MOTION_DDOT": 0}, "tle": {"line1": "1 66658U 25274J   25348.28427134  .00004097  00000+0  40276-3 0  9995", "line2": "2 66658  97.7387 275.4680 0011165 273.0269  86.9673 14.92637558  2639"}}, "geometry": {"type": "Point", "coordinates": [-98.81853526079105, 62.51808306953584]}}, {"type": "Feature", "properties": {"norad_id": 66659, "name": "JACK K", "group": "last-30-days", "lat": 73.93511073290938, "lon": -111.83631343941342, "alt_km": 590.0440489071161, "timestamp": "2025-12-15T04:01:19.180673+00:00", "meta": {"OBJECT_NAME": "JACK K", "OBJECT_ID": "2025-274K", "EPOCH": "2025-12-14T06:46:11.972928", "MEAN_MOTION": 14.9282178, "ECCENTRICITY": 0.00119016, "INCLINATION": 97.7387, "RA_OF_ASC_NODE": 275.4715, "ARG_OF_PERICENTER": 274.5425, "MEAN_ANOMALY": 85.4434, "EPHEMERIS_TYPE": 0, "CLASSIFICATION_TYPE": "U", "NORAD_CAT_ID": 66659, "ELEMENT_SET_NO": 999, "REV_AT_EPOCH": 263, "BSTAR": 0.00038735335, "MEAN_MOTION_DOT": 3.957e-05, "MEAN_MOTION_DDOT": 0}, "tle": {"line1": "1 66659U 25274K   25348.28208302  .00003957  00000+0  38735-3 0  9991", "line2": "2 66659  97.7387 275.4715 0011901 274.5425  85.4434 14.92821780  2638"}}, "geometry": {"type": "Point", "coordinates": [-111.83631343941342, 73.93511073290938]}}, {"type": "Feature", "properties": {"norad_id": 66660, "name": "K-HERO", "group": "last-30-days", "lat": 81.2132120237087, "lon": -145.26861961476985, "alt_km": 589.8961802021659, "timestamp": "2025-12-15T04:01:19.180685+00:00", "meta": {"OBJECT_NAME": "K-HERO", "OBJECT_ID": "2025-274L", "EPOCH": "2025-12-14T06:43:39.323136", "MEAN_MOTION": 14.92970721, "ECCENTRICITY": 0.00125171, "INCLINATION": 97.7389, "RA_OF_ASC_NODE": 275.4745, "ARG_OF_PERICENTER": 275.0183, "MEAN_ANOMALY": 84.9607, "EPHEMERIS_TYPE": 0, "CLASSIFICATION_TYPE": "U", "NORAD_CAT_ID": 66660, "ELEMENT_SET_NO": 999, "REV_AT_EPOCH": 263, "BSTAR": 0.00036576832, "MEAN_MOTION_DOT": 3.748e-05, "MEAN_MOTION_DDOT": 0}, "tle": {"line1": "1 66660U 25274L   25348.28031624  .00003748  00000+0  36577-3 0  9994", "line2": "2 66660  97.7389 275.4745 0012517 275.0183  84.9607 14.92970721  2632"}}, "geometry": {"type": "Point", "coordinates": [-145.26861961476985, 81.2132120237087]}}, {"type": "Feature", "properties": {"norad_id": 66661, "name": "SNUGLITE-III", "group": "last-30-days", "lat": 80.4344989281812, "lon": 150.15077273523835, "alt_km": 590.0215857323165, "timestamp": "2025-12-15T04:01:19.180695+00:00", "meta": {"OBJECT_NAME": "SNUGLITE-III", "OBJECT_ID": "2025-274M", "EPOCH": "2025-12-14T06:41:08.601792", "MEAN_MOTION": 14.93107895, "ECCENTRICITY": 0.00132004, "INCLINATION": 97.7388, "RA_OF_ASC_NODE": 275.4762, "ARG_OF_PERICENTER": 276.291, "MEAN_ANOMALY": 83.6806, "EPHEMERIS_TYPE": 0, "CLASSIFICATION_TYPE": "U", "NORAD_CAT_ID": 66661, "ELEMENT_SET_NO": 999, "REV_AT_EPOCH": 263, "BSTAR": 0.0003143956, "MEAN_MOTION_DOT": 3.225e-05, "MEAN_MOTION_DDOT": 0}, "tle": {"line1": "1 66661U 25274M   25348.27857178  .00003225  00000+0  31440-3 0  9998", "line2": "2 66661  97.7388 275.4762 0013200 276.2910  83.6806 14.93107895  2634"}}, "geometry": {"type": "Point", "coordinates": [150.15077273523835, 80.4344989281812]}}]}